[{"OBJECT_NAME":"STARLINK-32080","OBJECT_ID":"2024-086B","EPOCH":"2026-03-09T09:47:43.914624","MEAN_MOTION":15.27565794,"ECCENTRICITY":7.685e-5,"INCLINATION":43.002,"RA_OF_ASC_NODE":65.3845,"ARG_OF_PERICENTER":267.2778,"MEAN_ANOMALY":92.7986,"EPHEMERIS_TYPE":0,"CLASSIFICATION_TYPE":"U","NORAD_CAT_ID":59683,"ELEMENT_SET_NO":999,"REV_AT_EPOCH":10403,"BSTAR":6.7045858e-5,"MEAN_MOTION_DOT":1.583e-5,"MEAN_MOTION_DDOT":0},{"OBJECT_NAME":"OBJECT H","OBJECT_ID":"2025-155H","EPOCH":"2026-03-09T22:09:58.611456","MEAN_MOTION":15.27590961,"ECCENTRICITY":0.00081993,"INCLINATION":97.4482,"RA_OF_ASC_NODE":37.3122,"ARG_OF_PERICENTER":152.0629,"MEAN_ANOMALY":208.1051,"EPHEMERIS_TYPE":0,"CLASSIFICATION_TYPE":"U","NORAD_CAT_ID":64883,"ELEMENT_SET_NO":999,"REV_AT_EPOCH":6559,"BSTAR":0.00050403256,"MEAN_MOTION_DOT":0.00013547,"MEAN_MOTION_DDOT":0}]
